{"type": "FeatureCollection", "features": [ {"type": "Feature", "properties": {"norad_id": 30160, "name": "FENGYUN 1C DEB", "group": "fengyun-1c-debris", "lat": 0.8434353061287222, "lon": 121.80758585980624, "alt_km": 1003.2854015287039, "timestamp": "2025-12-19T22:41:52.666325+00:00", "meta": {"OBJECT_NAME": "FENGYUN 1C DEB", "OBJECT_ID": "1999-025TR", "EPOCH": "2025-12-19T09:56:25.444896", "MEAN_MOTION": 13.42899608, "ECCENTRICITY": 0.034315, "INCLINATION": 98.8869, "RA_OF_ASC_NODE": 301.206, "ARG_OF_PERICENTER": 110.9704, "MEAN_ANOMALY": 15.9355, "EPHEMERIS_TYPE": 0, "CLASSIFICATION_TYPE": "U", "NORAD_CAT_ID": 30160, "ELEMENT_SET_NO": 999, "REV_AT_EPOCH": 92503, "BSTAR": 0.00086324, "MEAN_MOTION_DOT": 6.63e-06, "MEAN_MOTION_DDOT": 0}, "tle": {"line1": "1 30160U 99025TR  25353.41418339  .00000663  00000+0  86324-3 0  9996", "line2": "2 30160  98.8869 301.2060 0343150 110.9704  15.9355 13.42899608925037"}}, "geometry": {"type": "Point", "coordinates": [121.80758585980624, 0.8434353061287222]}}, {"type": "Feature", "properties": {"norad_id": 30161, "name": "FENGYUN 1C DEB", "group": "fengyun-1c-debris", "lat": -79.47214591414598, "lon": 68.54297154561222, "alt_km": 867.1239467964415, "timestamp": "2025-12-19T22:41:52.666335+00:00", "meta": {"OBJECT_NAME": "FENGYUN 1C DEB", "OBJECT_ID": "1999-025TS", "EPOCH": "2025-12-19T09:45:54.413856", "MEAN_MOTION": 13.49738743, "ECCENTRICITY": 0.0327899, "INCLINATION": 100.5057, "RA_OF_ASC_NODE": 341.1722, "ARG_OF_PERICENTER": 241.7778, "MEAN_ANOMALY": 289.8674, "EPHEMERIS_TYPE": 0, "CLASSIFICATION_TYPE": "U", "NORAD_CAT_ID": 30161, "ELEMENT_SET_NO": 999, "REV_AT_EPOCH": 92649, "BSTAR": 0.0012754, "MEAN_MOTION_DOT": 1.076e-05, "MEAN_MOTION_DDOT": 0}, "tle": {"line1": "1 30161U 99025TS  25353.40687979  .00001076  00000+0  12754-2 0  9998", "line2": "2 30161 100.5057 341.1722 0327899 241.7778 289.8674 13.49738743926498"}}, "geometry": {"type": "Point", "coordinates": [68.54297154561222, -79.47214591414598]}}, {"type": "Feature", "properties": {"norad_id": 30162, "name": "FENGYUN 1C DEB", "group": "fengyun-1c-debris", "lat": 16.624360084966952, "lon": -127.41079749041855, "alt_km": 1288.3895883049463, "timestamp": "2025-12-19T22:41:52.666345+00:00", "meta": {"OBJECT_NAME": "FENGYUN 1C DEB", "OBJECT_ID": "1999-025TT", "EPOCH": "2025-12-19T02:30:26.271936", "MEAN_MOTION": 13.5342596, "ECCENTRICITY": 0.03138527, "INCLINATION": 99.4885, "RA_OF_ASC_NODE": 48.9197, "ARG_OF_PERICENTER": 333.445, "MEAN_ANOMALY": 53.464, "EPHEMERIS_TYPE": 0, "CLASSIFICATION_TYPE": "U", "NORAD_CAT_ID": 30162, "ELEMENT_SET_NO": 999, "REV_AT_EPOCH": 92747, "BSTAR": 0.0022381405, "MEAN_MOTION_DOT": 2.01e-05, "MEAN_MOTION_DDOT": 0}, "tle": {"line1": "1 30162U 99025TT  25353.10447074  .00002010  00000+0  22381-2 0  9992", "line2": "2 30162  99.4885  48.9197 0313852 333.4450  53.4640 13.53425960927478"}}, "geometry": {"type": "Point", "coordinates": [-127.41079749041855, 16.624360084966952]}}, {"type": "Feature", "properties": {"norad_id": 30163, "name": "FENGYUN 1C DEB", "group": "fengyun-1c-debris", "lat": 26.57924917722423, "lon": -67.58023371342075, "alt_km": 970.633970296396, "timestamp": "2025-12-19T22:41:52.666355+00:00", "meta": {"OBJECT_NAME": "FENGYUN 1C DEB", "OBJECT_ID": "1999-025TU", "EPOCH": "2025-12-19T06:06:24.880032", "MEAN_MOTION": 13.38800273, "ECCENTRICITY": 0.0373884, "INCLINATION": 98.7014, "RA_OF_ASC_NODE": 107.4316, "ARG_OF_PERICENTER": 216.1421, "MEAN_ANOMALY": 210.4808, "EPHEMERIS_TYPE": 0, "CLASSIFICATION_TYPE": "U", "NORAD_CAT_ID": 30163, "ELEMENT_SET_NO": 999, "REV_AT_EPOCH": 92032, "BSTAR": 0.0015415, "MEAN_MOTION_DOT": 1.199e-05, "MEAN_MOTION_DDOT": 0}, "tle": {"line1": "1 30163U 99025TU  25353.25445463  .00001199  00000+0  15415-2 0  9996", "line2": "2 30163  98.7014 107.4316 0373884 216.1421 210.4808 13.38800273920320"}}, "geometry": {"type": "Point", "coordinates": [-67.58023371342075, 26.57924917722423]}}, {"type": "Feature", "properties": {"norad_id": 30167, "name": "FENGYUN 1C DEB", "group": "fengyun-1c-debris", "lat": 65.39425536631909, "lon": 59.39082277735521, "alt_km": 680.8963817452868, "timestamp": "2025-12-19T22:41:52.666366+00:00", "meta": {"OBJECT_NAME": "FENGYUN 1C DEB", "OBJECT_ID": "1999-025TY", "EPOCH": "2025-12-19T04:17:28.764960", "MEAN_MOTION": 14.48564883, "ECCENTRICITY": 0.01442491, "INCLINATION": 98.968, "RA_OF_ASC_NODE": 78.7478, "ARG_OF_PERICENTER": 135.2818, "MEAN_ANOMALY": 256.0693, "EPHEMERIS_TYPE": 0, "CLASSIFICATION_TYPE": "U", "NORAD_CAT_ID": 30167, "ELEMENT_SET_NO": 999, "REV_AT_EPOCH": 99452, "BSTAR": 0.00033930934, "MEAN_MOTION_DOT": 1.399e-05, "MEAN_MOTION_DDOT": 0}, "tle": {"line1": "1 30167U 99025TY  25353.17880515  .00001399  00000+0  33931-3 0  9998", "line2": "2 30167  98.9680  78.7478 0144249 135.2818 256.0693 14.48564883994523"}}, "geometry": {"type": "Point", "coordinates": [59.39082277735521, 65.39425536631909]}}, {"type": "Feature", "properties": {"norad_id": 30168, "name": "FENGYUN 1C DEB", "group": "fengyun-1c-debris", "lat": -70.48824237681453, "lon": -136.0195113863228, "alt_km": 758.6582354789807, "timestamp": "2025-12-19T22:41:52.666376+00:00", "meta": {"OBJECT_NAME": "FENGYUN 1C DEB", "OBJECT_ID": "1999-025TZ", "EPOCH": "2025-12-19T05:01:22.312128", "MEAN_MOTION": 14.52969122, "ECCENTRICITY": 0.0100537, "INCLINATION": 97.39, "RA_OF_ASC_NODE": 64.8163, "ARG_OF_PERICENTER": 133.9009, "MEAN_ANOMALY": 227.0546, "EPHEMERIS_TYPE": 0, "CLASSIFICATION_TYPE": "U", "NORAD_CAT_ID": 30168, "ELEMENT_SET_NO": 999, "REV_AT_EPOCH": 98405, "BSTAR": 0.0012919, "MEAN_MOTION_DOT": 5.658e-05, "MEAN_MOTION_DDOT": 0}, "tle": {"line1": "1 30168U 99025TZ  25353.20928602  .00005658  00000+0  12919-2 0  9997", "line2": "2 30168  97.3900  64.8163 0100537 133.9009 227.0546 14.52969122984050"}}, "geometry": {"type": "Point", "coordinates": [-136.0195113863228, -70.48824237681453]}}, {"type": "Feature", "properties": {"norad_id": 30169, "name": "FENGYUN 1C DEB", "group": "fengyun-1c-debris", "lat": -27.048625831201765, "lon": -120.85762265967327, "alt_km": 553.7823113498898, "timestamp": "2025-12-19T22:41:52.666386+00:00", "meta": {"OBJECT_NAME": "FENGYUN 1C DEB", "OBJECT_ID": "1999-025UA", "EPOCH": "2025-12-19T03:46:17.488704", "MEAN_MOTION": 14.58276879, "ECCENTRICITY": 0.02130488, "INCLINATION": 98.3364, "RA_OF_ASC_NODE": 62.6448, "ARG_OF_PERICENTER": 207.2146, "MEAN_ANOMALY": 182.3489, "EPHEMERIS_TYPE": 0, "CLASSIFICATION_TYPE": "U", "NORAD_CAT_ID": 30169, "ELEMENT_SET_NO": 999, "REV_AT_EPOCH": 97817, "BSTAR": 0.0020227222, "MEAN_MOTION_DOT": 0.0001277, "MEAN_MOTION_DDOT": 0}, "tle": {"line1": "1 30169U 99025UA  25353.15714686  .00012770  00000+0  20227-2 0  9991", "line2": "2 30169  98.3364  62.6448 0213048 207.2146 182.3489 14.58276879978178"}}, "geometry": {"type": "Point", "coordinates": [-120.85762265967327, -27.048625831201765]}}, {"type": "Feature", "properties": {"norad_id": 30170, "name": "FENGYUN 1C DEB", "group": "fengyun-1c-debris", "lat": 24.487148280046725, "lon": 164.81567781159595, "alt_km": 900.5870778426015, "timestamp": "2025-12-19T22:41:52.666397+00:00", "meta": {"OBJECT_NAME": "FENGYUN 1C DEB", "OBJECT_ID": "1999-025UB", "EPOCH": "2025-12-19T10:34:51.390048", "MEAN_MOTION": 14.00316098, "ECCENTRICITY": 0.0077131, "INCLINATION": 98.8487, "RA_OF_ASC_NODE": 340.2586, "ARG_OF_PERICENTER": 255.7795, "MEAN_ANOMALY": 236.4427, "EPHEMERIS_TYPE": 0, "CLASSIFICATION_TYPE": "U", "NORAD_CAT_ID": 30170, "ELEMENT_SET_NO": 999, "REV_AT_EPOCH": 96509, "BSTAR": 0.00029836, "MEAN_MOTION_DOT": 4.1e-06, "MEAN_MOTION_DDOT": 0}, "tle": {"line1": "1 30170U 99025UB  25353.44087257  .00000410  00000+0  29836-3 0  9996", "line2": "2 30170  98.8487 340.2586 0077131 255.7795 236.4427 14.00316098965093"}}, "geometry": {"type": "Point", "coordinates": [164.81567781159595, 24.487148280046725]}}, {"type": "Feature", "properties": {"norad_id": 30171, "name": "FENGYUN 1C DEB", "group": "fengyun-1c-debris", "lat": -68.6285009143233, "lon": -126.78919244605069, "alt_km": 812.0411307246859, "timestamp": "2025-12-19T22:41:52.666408+00:00", "meta": {"OBJECT_NAME": "FENGYUN 1C DEB", "OBJECT_ID": "1999-025UC", "EPOCH": "2025-12-19T02:24:07.516800", "MEAN_MOTION": 13.96863539, "ECCENTRICITY": 0.01842581, "INCLINATION": 98.3978, "RA_OF_ASC_NODE": 210.2596, "ARG_OF_PERICENTER": 249.5074, "MEAN_ANOMALY": 108.6228, "EPHEMERIS_TYPE": 0, "CLASSIFICATION_TYPE": "U", "NORAD_CAT_ID": 30171, "ELEMENT_SET_NO": 999, "REV_AT_EPOCH": 96359, "BSTAR": 0.00031681677, "MEAN_MOTION_DOT": 4.69e-06, "MEAN_MOTION_DDOT": 0}, "tle": {"line1": "1 30171U 99025UC  25353.10008700  .00000469  00000+0  31682-3 0  9992", "line2": "2 30171  98.3978 210.2596 0184258 249.5074 108.6228 13.96863539963594"}}, "geometry": {"type": "Point", "coordinates": [-126.78919244605069, -68.6285009143233]}}, {"type": "Feature", "properties": {"norad_id": 30172, "name": "FENGYUN 1C DEB", "group": "fengyun-1c-debris", "lat": -16.343495589516685, "lon": -24.029987900164915, "alt_km": 902.8149959089997, "timestamp": "2025-12-19T22:41:52.666418+00:00", "meta": {"OBJECT_NAME": "FENGYUN 1C DEB", "OBJECT_ID": "1999-025UD", "EPOCH": "2025-12-19T09:54:37.025856", "MEAN_MOTION": 14.12494735, "ECCENTRICITY": 0.0068765, "INCLINATION": 99.2348, "RA_OF_ASC_NODE": 332.6866, "ARG_OF_PERICENTER": 183.1499, "MEAN_ANOMALY": 332.2652, "EPHEMERIS_TYPE": 0, "CLASSIFICATION_TYPE": "U", "NORAD_CAT_ID": 30172, "ELEMENT_SET_NO": 999, "REV_AT_EPOCH": 96611, "BSTAR": 0.0010569, "MEAN_MOTION_DOT": 1.95e-05, "MEAN_MOTION_DDOT": 0}, "tle": {"line1": "1 30172U 99025UD  25353.41292854  .00001950  00000+0  10569-2 0  9998", "line2": "2 30172  99.2348 332.6866 0068765 183.1499 332.2652 14.12494735966117"}}, "geometry": {"type": "Point", "coordinates": [-24.029987900164915, -16.343495589516685]}}]}